email,company_name,website,city,state,profession,phone,country
sean.hayes@kw.com,"Sunlit Properties LLC",http://www.sunlitpropertiesllc.com,Athens,Georgia,"Property Consultant",17063521234,USA
janice@getaffordablehousing.com,"Harvard Real Estate Investment",https://extension.harvard.edu,Atlanta,Georgia,"Investment service",17709398283,USA
jgerber@aresmgmt.com,"Ares Management LLC",http://www.aresmgmt.com,Atlanta,Georgia,"Investment service",16785381900,USA
atan@deiatl.com,"Diamond Equity Investments",https://diamondequity.com,"Peachtree Corners",Georgia,"Property Developer",17707667061,USA
propertytwinz@scighomebuyers.com,"Star Capital Investment Group",http://www.scighomebuyers.com,Lawrenceville,Georgia,"Property Consultant",16782359109,USA
alan@theangeladvisors.com,"Richard Bowers & Co",http://www.theangeladvisors.com,Atlanta,Georgia,"Property Consultant",14042315252,USA
katameriaj@kattjrealestate.com,"Katt J Real Estate Investing LLC",https://kattjrealestate.com,Jonesboro,Georgia,"Property Developer",14049749772,USA
boherron@cygnuscapital.com,"Cygnus Capital",http://www.cygnuscapital.com,Atlanta,Georgia,"Investment company",16789996539,USA
jwhite@tiogacap.com,"Tioga Capital",https://tiogacap.com,Atlanta,Georgia,"Investment service",14042600700,USA
ewoud.swaak@westplan.nl,"Westplan Investors",https://westplan.com,Atlanta,Georgia,"Investment service",17703909378,USA
intl@home-pride.com,"Home Pride Properties Inc.",http://www.home-pride.com,Atlanta,Georgia,"Property Consultant",16785328870,USA
gjohnston@formationcapital.com,"Formation Capital LLC",http://formationcapital.com,Atlanta,Georgia,"Investment service",17707549660,USA
sobrien@twocapitalpartners.com,"TWO Capital Partners",http://www.twocapitalpartners.com,Atlanta,Georgia,"Property Developer",14049261538,USA
dhaddow@haddowandcompany.com,"Haddow & Company",http://haddowandcompany.com,Atlanta,Georgia,"Property Consultant",14045777222,USA
gwinnerken@urpatl.com,"Urban Realty Partners",http://www.urbanrealtypartners.net,Atlanta,Georgia,"Property Consultant",14045641250,USA
chris.drexler@nafinc.com,"TDH Property Investments LLC",http://www.libertycommunities.com,"College Park",Georgia,"Property Developer",18776555514,USA
tim@cityrealty.net,"City Realty Advisors",http://www.cityrealty.net,Atlanta,Georgia,"Property Consultant",14049200852,USA
creditinvestors@fortress.com,"Fortress Investment Group",https://www.fortress.com,Atlanta,Georgia,"Investment service",14042644770,USA
hannah.coan@capgroup.com,"Capital Group",https://www.thecapitalgroup.com,Atlanta,Georgia,"Investment company",14046854200,USA
becktonpetteway@databankinfo.com,Databank,http://www.databankinfo.com,Atlanta,Georgia,"Property Consultant",14048728880,USA
asandoval@avatargroups.com,"Avatar Group",http://www.avatargroups.com,Roswell,Georgia,"Property Consultant",16787188870,USA
webster@remsgroup.com,"Real Estate Management Group LLC",http://remsgroup.com,Atlanta,Georgia,"Property Consultant",14045828990,USA
oldgilmangrill@lvmgt.com,"Legacy Property Group",http://lvmgt.com,Atlanta,Georgia,"Property Investment",14042229100,USA
rholmes@sevenoakscompany.com,"Seven Oaks Company",https://sevenoakscompany.com,Atlanta,Georgia,"Property Developer",17708749100,USA
pm.tclb@carrollmg.com,"Carroll Organization",https://www.carrollorg.com,Atlanta,Georgia,"Property Investment",14048128270,USA
princebailey@nolimitinvestmentgroup.co,"No Limit Investment Group",http://www.nolimitinvestmentgroup.co,Atlanta,Georgia,"Property Developer",14708223717,USA
mbg@abmac.com,"Sylvan Road",https://sylvanroad.com,Atlanta,Georgia,"Investment service",14049244800,USA
james.thompson@finsbury.com,Greystar,http://www.greystar.com,Atlanta,Georgia,"Property Developer",17705124000,USA
cbryars@danielcorp.com,"Daniel Realty Services",http://danielrealty.com,Atlanta,Georgia,"Property developer",14048179669,USA
lfriddell@pattersonreag.com,"Patterson Real Estate Advisory Group",http://www.pattersonreag.com,Atlanta,Georgia,"Property Consultant",14045046684,USA
jborden@harvestcapgroup.com,"Harvest Capital Group",https://www.harvestcapgroup.com,Atlanta,Georgia,"Property Developer",14049635101,USA
tgaines@tpa-res.com,"TPA Residential",https://tpa-res.com,Atlanta,Georgia,"Property Developer",17704363400,USA
lsims@tritonbusiness.com,"Triton Business Group",http://tritonfranchise.com,Decatur,Georgia,"Property Consultant",17702492357,USA
john@duffyroof.com,"T W Doers Investment Firm",http://www.duffyroof.com,Atlanta,Georgia,"Investment service",14045001100,USA
ray@iresproperties.com,"IRES Improvement Real Estate Solutions LLC",https://www.iresproperties.com,Augusta,Georgia,"Property Developer",17063090388,USA
madera@skipperinvestments.com,"Skipper Investments LLC",http://www.skipperinvestments.com,Evans,Georgia,"Investment service",17069518084,USA
dorrie.green@merryland.com,"Merry Land Properties LLC",http://merryland.com,Augusta,Georgia,"Property Developer",17067226756,USA
jmorejon@gatesrealestategroup.com,"Gates Real Estate Group",http://www.gatesrealestategroup.com,Suwanee,Georgia,"Property Consultant",17706012381,USA
jim@barrettproperties.com,"Barrett Properties",http://barrettproperties.com,Dalton,Georgia,"Property Investment",17062791380,USA
thom.pickett@wellsfargoadvisors.com,"Wells Fargo Advisors",https://home.wellsfargoadvisors.com,Dalton,Georgia,"Investment service",17062785232,USA
leasing@dewberrygroup.com,"Dewberry Capital/Security Corporation",http://www.dewberrycapital.com,Atlanta,Georgia,"Property Developer",14048887990,USA
leon@collinsrealestate.net,"Collins Real Estate",http://www.collinsrealestate.net,Byron,Georgia,"Property Consultant",14782028332,USA
mrkeg@kegrealtors.com,KEGREALTORS,http://www.kegrealtors.com,"Warner Robins",Georgia,"Property Consultant",14789227701,USA
bbaeta@reiscout.com,"Real Estate Investment Scout",http://www.reiscout.com,Stockbridge,Georgia,"Property Consultant",14045137957,USA
pat@thorntonga.com,"Thornton Realty Co",http://thorntonga.com,Macon,Georgia,"Property Developer",14787451677,USA
gerald@georgiahousebuyers.com,"Middle Georgia Property Solutions LLC",https://www.georgiahousebuyers.com,Macon,Georgia,"Property Investment",14782538766,USA
kpowell@sppland.com,"SPP Land - Southern Pine Plantations",http://www.sppland.com,Macon,Georgia,"Property Investment",14784771000,USA
wholesalers@gapeachproperties.com,"GA Peach Properties",http://www.gapeachproperties.com,Macon,Georgia,"Property Consultant",14782415222,USA
george@ramsbottomco.com,"The Ramsbottom Company",http://www.ramsbottomco.com,Macon,Georgia,"Property Developer",14787437200,USA
michele@michelecalloway.com,"EXIT Realty Quality Solutions",http://www.exitrealtyqualitysolutions.com,Marietta,Georgia,"Property Consultant",14049345566,USA
rentals@courtneynewton.com,"Keller Williams Realty - Associates of Courtney Newton",https://www.courtneynewton.com,Marietta,Georgia,"Property Consultant",17706273963,USA
jeff@jeffsellsgeorgia.com,"Jeff Little - REALTORÂ® - ERA Sunrise Realty",http://www.jeffsellsgeorgia.com,Marietta,Georgia,"Property Consultant",17703617042,USA
giovanni@giovannirusso.com,"Giovanni Russo REALTOR Investor-Powerhouse Real Estate",http://www.giovannirusso.com,Roswell,Georgia,"Property Consultant",14043109661,USA
allan.minter@harrynorman.com,"Minter RE Investments LLC",http://myatlantahomesearch.com,Atlanta,Georgia,"Property Consultant",17703134694,USA
kkritz@columbiapropertiesinc.com,"Columbia Retail Management",http://www.columbiaretailmanagement.com,Marietta,Georgia,"Investment service",16784603131,USA
tracy@7realestatemgt.com,"7 Real Estate Management Services",https://7realestatemgt.com,Marietta,Georgia,"Property Consultant",14045589854,USA
cleve@greatpropertiesllc.com,"Great Properties LLC",http://www.greatpropertiesllc.com,Marietta,Georgia,"Property Consultant",16788255247,USA
ben@benbuysatlantahomes.com,"Ben Buys Atlanta Homes",http://benbuysatlantahomes.com,Atlanta,Georgia,"Property Developer",17069630051,USA
ryan.rains@smartredata.com,"Smart Real Estate Data",http://www.smartredata.com,Marietta,Georgia,"Property Consultant",17704245128,USA
craig@theb-linebroker.com,"Re/Max Greater Atlanta-Cobb",http://atlantamansions.net,Marietta,Georgia,"Property Consultant",16788984001,USA
cleverett@blackbeltrealty.com,"Black Realty & Development Company",http://www.blackbeltrealty.com,Marietta,Georgia,"Property Developer",17704278888,USA
emmystaton@ansleyatlanta.com,"Charda Bishop Realtor Re/max PURE",http://www.emmystatonrealtor.com,Marietta,Georgia,"Property Consultant",14042919564,USA
pallee@ledbetterproperties.com,"R H Ledbetter Properties Inc",https://ledbetterproperties.com,Rome,Georgia,"Property Developer",17062917283,USA
laurapitts@martinsre.com,"Martins Real Estate",https://martinsre.com,Rome,Georgia,"Property Developer",17062959640,USA
clay@ronborders.com,"Andy Deal - Realtor",http://www.adealrealtor.com,Valdosta,Georgia,"Property Consultant",12292590608,USA
darryl.fletcher@risere.com,"RISE: A Real Estate Company",http://risere.com,Valdosta,Georgia,"Property Developer",12292472077,USA
jhanson@idpproperties.com,"IDP Properties",http://www.idpproperties.com,Valdosta,Georgia,"Property Developer",12292196760,USA
sboatner@investwithtic.com,"The Investment Centre at CBC Bank",http://www.investwithtic.com,Valdosta,Georgia,"Investment service",12292198426,USA
andy@ronborders.com,"NAI Commercial Realty Advisors",http://naicra.com,Valdosta,Georgia,"Property Consultant",12292590608,USA
