email,company_name,website,city,state,profession,phone,country
dorrie.deluca@gmail.com,"Suncoast Real Estate Solutions",http://suncoastrealestatesolutions.com,Lakeland,"Florida ","Property Consultant",18637772682,USA
brandiwineconsultants@gmail.com,"Brandiwine Consultants",http://brandiwineconsultants.com,Orlando,"Florida ","Property Consultant",14073759359,USA
katestorybtgh@gmail.com,"Real Estate Kate",https://realestatekatefl.com,Tampa,"Florida ","Property Consultant",18134593995,USA
mdhomeacquisitions@hotmail.com,"Denver Association of Real Estate Investors - DAREI",http://mdhomeacquisitions.com,"Port Charlotte","Florida ","Property Investment",17203312012,USA
priyatherealtor@gmail.com,"Priya Deshmukh Realtor Investor Property Manager",http://www.priyatherealtor.com,"Boca Raton","Florida ","Property Consultant",15618656828,USA
realtorlaurane@gmail.com,"Fair Buy Real Estate Investors",http://www.simonsellsrealestate.net,"West Palm Beach","Florida ","Property Consultant",19544650398,USA
cabralcandace@gmail.com,"Commercial Investments",http://www.candacecabral.com,"Boca Raton","Florida ","Property Consultant",15613919891,USA
srqsandra@icloud.com,"Buy Sell Love Sarasota",http://www.buyselllovesarasota.com,Sarasota,"Florida ","Property Consultant",19419200523,USA
angelaln1366@gmail.com,"Bob & Kerry Andrews",https://www.viewsarasotahouses.com,Sarasota,"Florida ","Property Consultant",19418937320,USA
jwintaylormade@gmail.com,"Taylor Made investors",http://taylormadeinvestors.com,"Fort Myers","Florida ","Property Investment",19545195619,USA
alonzovela@gmail.com,"Harbor Palms Reality LLC",https://www.harborpalmsreality.com,"Cape Coral","Florida ","Property Investment",12398981351,USA
janepodowski@gmail.com,"Jane Podowski- NextHome Advisors",http://waterfrontnexthomeadvisor.com,"Fort Myers","Florida ","Property Consultant",12396912166,USA
smithjohns2310@gmail.com,"Time Arrive",http://flcompanydb.com,"Lehigh Acres","Florida ","Property Investment",12392101623,USA
vwbrinson@gmail.com,"Venie Brinson Realtor",http://www.vbrinson.com,Clearwater,"Florida ","Property Consultant",17274611551,USA
lightningfast727@gmail.com,"Lightning Property Group LLC",http://lightningpropertygroup.com,Clearwater,"Florida ","Investment service",17277556885,USA
bengator13@gmail.com,"Ben Mitrano PA",https://benedettomitrano.gocrr.com,Clearwater,"Florida ","Property Consultant",17275043490,USA
sonrisepalmsrvpark@hotmail.com,"4Brevard.com - Fearless",http://www.4brevard.com,"Merritt Island","Florida ","Property Consultant",13214805514,USA
propertyfastcash@gmail.com,"Property Fast Cash",http://www.propertyfastcash.com,Hialeah,"Florida ","Property Investment",13059271525,USA
wenzelinv@aol.com,"Wenzel Investment Group",https://wenzelinv.com,"Coconut Grove","Florida ","Property Developer",13054482266,USA
gpig.llc@gmail.com,"Global Property Investment Group LLC",http://globalproperty.webs.com,Clermont,"Florida ","Property Consultant",13522545467,USA
jeffreyhillenbrand@gmail.com,"Jeff Hillenbrand Re/Max Advisors Real Estate South Florida",http://www.jeffhillenbrand.com,Parkland,"Florida ","Property Consultant",19548214492,USA
leads.endurancecm@gmail.com,"I Buy Homes",https://ibuyhomes.com,"West Palm Beach","Florida ","Property Consultant",18663503554,USA
doyleopensdoors@gmail.com,"Susan H Doyle Realtor Florida Premier Realty",http://susandoyle.fpmoves.com,"Delray Beach","Florida ","Property Consultant",15613719925,USA
kevin.turnyanszki@gmail.com,"Turn-Key Asset Management LLC",http://www.turnkeyamc.com,Yulee,"Florida ","Property Consultant",19044411884,USA
parkandcompanyinvestments@gmail.com,"Iceberg Investments LLC",http://www.parkandcompanyinvestments.com,Jacksonville,"Florida ","Investment company",19493551396,USA
yourtrustedhomebuyer@gmail.com,"Your Trusted Home Buyer",http://www.yourtrustedhomebuyer.com,"Fort Lauderdale","Florida ","Property Consultant",19543500000,USA
reodocket@gmail.com,"Dynasty Properties LLC",http://www.dynastybuyshouses.com,"Fort Lauderdale","Florida ","Property Investment",17866930231,USA
palmtreecashhomebuyers@gmail.com,PalmtreeCashHomebuyers,https://www.palmtreecashhomebuyers.com,"Fort Lauderdale","Florida ","Property Consultant",19542289507,USA
angelfloridarealtor@gmail.com,"Real Estate services Fort Lauderdale Florida",https://angelcalzadilla.matrix.southfloridamls.com,"Fort Lauderdale","Florida ","Property Consultant",19546323593,USA
leonbuyshouses@gmail.com,"Gold Star Real Estate LLC",http://www.goldstarrealestatefl.com,Hollywood,"Florida ","Property Developer",19548929874,USA
made4cleaningllc@yahoo.com,"Real Estate Investor",http://made4cleaningfl.com,"Port St. Lucie","Florida ","Property Developer",17863068176,USA
realestategreatdeals1@gmail.com,"Quality properties of Northwest Florida LLC",https://www.qualitypropertiescashbuyer.com,Pensacola,"Florida ","Property Investment",18503464995,USA
kprealtor09@gmail.com,"KPeters Miami Real Estate",https://kpmiamirealestate.com,"Sunny Isles Beach","Florida ","Property Consultant",13014913478,USA
kushnirkii@aol.com,"USA Secured Investment Inc",https://www.usasecured.com,Hollywood,"Florida ","Investment service",19549223332,USA
buymiamicondo@gmail.com,"Anna Zaytseva Miami Realtor",http://www.buy-miami-condo.com,"Hallandale Beach","Florida ","Property Consultant",13054321186,USA
mooreinvestments60@yahoo.com,"Moore Capital Investments & Development",http://mooreinvestment.com,Aventura,"Florida ","Property Developer",13059677467,USA
brian.scheinblum@gmail.com,"VenturePointe Investments Realty",http://www.venturepointeinvestments.com,Miami,"Florida ","Property Consultant",17864538488,USA
decs-llc@outlook.com,"DECS Investment LLC",https://decs.tenantcloud.com,Miami,"Florida ","Property Investment",13053400387,USA
eduardoororealtor@gmail.com,"Alma Betancourt",http://www.almabetancourt.com,Doral,"Florida ","Property Consultant",13057446991,USA
ioni.cristina@gmail.com,"the trigon",http://ionirealestatemiami.com,Miami,"Florida ","Property Consultant",13059024103,USA
piedadecheverri7@gmail.com,Properhomesusa.com,http://www.properhomesusa.com,"Hialeah Gardens","Florida ","Property Consultant",13052009565,USA
jthadeveloper@gmail.com,"IRG Corporation",http://www.irgcorporation.com,"Miami Lakes","Florida ","Investment company",17865658726,USA
lobainc@gmail.com,"Loba Investment Group INC",https://www.4onthebeach.com,Hollywood,"Florida ","Property Developer",17862627546,USA
pabloinvestments561@gmail.com,"CAM Investments",https://www.pabloinvestment.com,Hollywood,"Florida ","Property Investment",17862528662,USA
nayausa@gmail.com,"Naya USA Investment & Management LLC",https://www.nayausa.net,Hollywood,"Florida ","Investment service",19542399697,USA
eewilliaminvestment@gmail.com,"E&E William Investment Group LLC",https://eewigroup.com,Lauderhill,"Florida ","Property Consultant",13058096178,USA
jtbuyhouses@gmail.com,"JT buy houses",https://www.jtbuyhouses.com,Gainesville,"Florida ","Property Investment",13523259539,USA
teamscottfl@gmail.com,"Team Scott at Florida Realty Investments",https://kissimmeeflhomes4u.com,Kissimmee,"Florida ","Property Consultant",14074601402,USA
vkbaker@icloud.com,"Baker Realty Investments",http://www.vannabaker.realtor,Kissimmee,"Florida ","Property Consultant",14078460101,USA
oviedomike@hotmail.com,"Mid Florida Investment Properties",http://www.floridahomeflipping.com,Orlando,"Florida ","Property Consultant",14077024900,USA
l_sanchezmelvin@aol.com,"Associate Realty & Investments",http://lsanchezmelvin.com,"Winter Haven","Florida ","Investment service",18636184000,USA
jessesellsswfl@outlook.com,"Lakeland Short Sale",http://spencerharrisgroup.com,Lakeland,"Florida ","Property Consultant",18133657013,USA
haygillpropertiesllc@gmail.com,"Haygill Propertiess LLC.",http://haygill.com,Lakeland,"Florida ","Property developer",18638778684,USA
mariaclelmenciamesag@gmail.com,"Lhs Real Estate Investments",http://mariaclemenciamesa.com,Wimauma,"Florida ","Property Investment",18137852696,USA
askgrand.com@gmail.com,"Grand Real Estate Company",https://askgrand.com,Miami,"Florida ","Property Investment",19548220556,USA
benichay@gmail.com,"Immobilier Miami",http://immobiliermiami.com,Miami,"Florida ","Property Consultant",13053797202,USA
gvunion1@gmail.com,"Gabriel Vasquez",http://www.mymiamiluxuryhomes.com,Miami,"Florida ","Property Consultant",13059620756,USA
melissashapiro13@gmail.com,"Miami Condos for Rent",http://miamicondos4rent.com,Miami,"Florida ","Property Consultant",17865481841,USA
jromanosells@hotmail.com,"Juan RomanoCRSCNECPA Realtor",http://www.jromanosells.com,Naples,"Florida ","Property Consultant",12396820044,USA
cbjsellsocala@gmail.com,"get cash for my house ocala",https://www.buymyhouseocala.com,Ocala,"Florida ","Property Consultant",13523044654,USA
ocalaproperties4u@gmail.com,"Carlos Tobon REALTORÂ®",http://ctobon.com,Ocala,"Florida ","Property Consultant",13522830406,USA
tylercarpenterventures@gmail.com,"Homes for Sale in the Ocala Area",http://carpenterrealtygroup.net,Ocala,"Florida ","Property Consultant",13523881402,USA
topgunusa@aol.com,"Billboard Brokers of America",https://www.billboardbroker.com,Ocala,"Florida ","Property Developer",13523626431,USA
grgeogee@yahoo.com,"CREI Management Group LLC",https://gicagradinaru.mfr.mlsmatrix.com,Ocoee,"Florida ","Property Consultant",14079003495,USA
mhi2001@aol.com,"Curtis Grimes (Keller Williams Realty- Lake Nona: The Grimes Group)",https://www.grimesfloridarealestate.com,Orlando,"Florida ","Property Consultant",19175779590,USA
particularpropertiesllc@gmail.com,"Particular Properties LLC",http://www.centralfloridahomebuyers.com,Orlando,"Florida ","Property Investment",14079845528,USA
kristy.pickens7@gmail.com,"Holston Properties & Development",http://www.holstondevelopment.com,Orlando,"Florida ","Property Developer",14074810002,USA
sellfloridahomenow@gmail.com,"Kuc Investment Group",http://www.sunsandwaterllc.com,"St. Augustine","Florida ","Property Consultant",19044795199,USA
dahomelife@gmail.com,"Roopan Realty Inc.",https://www.findhomeinbrevard.com,"Palm Bay","Florida ","Property Consultant",13213454935,USA
oprestorenow@gmail.com,"OPERATION RESTORE",https://www.oprestorenow.com,"Panama City","Florida ","Property Consultant",18504036765,USA
jninflorida@gmail.com,"Pinellas Cash Buyers",http://www.pinellascashbuyers.com,"St Pete Beach","Florida ","Property Consultant",17272022770,USA
realtorcfl@gmail.com,"Luxury and Investment Properties of Central Florida",http://www.williamroganrealtor.com,"Winter Springs","Florida ","Property Consultant",13215576440,USA
webuyhousesmorecash@gmail.com,"A1 Buyers - We Buy Houses",http://www.webuyhousesmorecash.com,Tampa,"Florida ","Property Consultant",18445654155,USA
derrickcooper001@gmail.com,"Derrick Cooper Real Estate",http://cooperpropertiestampa.com,Tampa,"Florida ","Property Consultant",18507288226,USA
tampaflippers@gmail.com,"Tampa Home Flippers",http://www.tampahomeflippers.com,Tampa,"Florida ","Property Investment",18132791828,USA
clearlyhomebuyers@gmail.com,"Clearly Home Buyers",http://www.clearlyhomebuyers.com,"West Palm Beach","Florida ","Property Consultant",15612202563,USA
sprealestate1@gmail.com,"Worth Avenue Capital Group",https://worthavenuecapitalgroup.com,"Palm Beach","Florida ","Property Investment",15613169948,USA
ariely2000@gmail.com,"REAL ESTATE NATIONAL LLC",http://realestatenationals.com,"Riviera Beach","Florida ","Property Developer",15619621033,USA
rogersj1000@gmail.com,"Midwest Investments for America",http://mifaeb5.com,"West Palm Beach","Florida ","Investment service",15615670776,USA
islandcap@protonmail.com,"Island Capital",http://islandcap.com,"Palm Beach","Florida ","Investment service",15616590103,USA
